NORAD_CAT_ID,OBJECT_NAME,OBJECT_TYPE,EPOCH,MEAN_MOTION,ECCENTRICITY,INCLINATION,RA_OF_ASC_NODE,ARG_OF_PERICENTER,MEAN_ANOMALY,BSTAR,MEAN_MOTION_DOT,MEAN_MOTION_DDOT,TLE_LINE0,TLE_LINE1,TLE_LINE2,SEMIMAJOR_AXIS,PERIOD,APOGEE,PERIGEE,DECAYED
52339.0,STARLINK-3792,PAYLOAD,2023-02-02 23:23:27,15.08837107,0.0001398,53.2106,245.1029,77.3669,282.7479,0.00010789,1.429e-05,0.0,0 STARLINK-3792,1 52339U 22045J   23033.97462337  .00001429  00000-0  10789-3 0  9991,2 52339  53.2106 245.1029 0001398  77.3669 282.7479 15.08837107 44943,6917.889,95.438,540.721,538.787,0.0
52339.0,STARLINK-3792,PAYLOAD,2023-02-03 13:41:55,15.08840938,0.0001493,53.211,242.4277,74.5411,285.5746,0.00010105,1.321e-05,0.0,0 STARLINK-3792,1 52339U 22045J   23034.57078208  .00001321  00000-0  10105-3 0  9991,2 52339  53.2110 242.4277 0001493  74.5411 285.5746 15.08840938 45038,6917.878,95.437,540.775,538.71,0.0
52339.0,STARLINK-3792,PAYLOAD,2023-02-04 13:32:42,15.08841174,0.0001385,53.2122,237.9652,84.915,275.2,9.2183e-05,1.18e-05,0.0,0 STARLINK-3792,1 52339U 22045J   23035.56438146  .00001180  00000-0  92183-4 0  9992,2 52339  53.2122 237.9652 0001385  84.9150 275.2000 15.08841174 45180,6917.877,95.437,540.7,538.784,0.0
52339.0,STARLINK-3792,PAYLOAD,2023-02-04 19:54:15,15.08841998,0.000108,53.2135,236.7758,82.1882,277.9233,6.7665e-05,7.89e-06,0.0,0 STARLINK-3792,1 52339U 22045J   23035.82934087  .00000789  00000-0  67665-4 0  9997,2 52339  53.2135 236.7758 0001080  82.1882 277.9233 15.08841998 45228,6917.874,95.437,540.486,538.992,0.0
52339.0,STARLINK-3792,PAYLOAD,2023-02-05 11:48:06,15.08837646,0.0001124,53.2135,233.8019,82.1788,277.9331,6.0123e-05,6.69e-06,0.0,0 STARLINK-3792,1 52339U 22045J   23036.49174424  .00000669  00000-0  60123-4 0  9991,2 52339  53.2135 233.8019 0001124  82.1788 277.9331 15.08837646 45325,6917.888,95.438,540.53,538.975,0.0
52339.0,STARLINK-3792,PAYLOAD,2023-02-05 19:45:02,15.08840406,0.0001099,53.2138,232.3147,83.5444,276.5673,4.459e-05,4.22e-06,0.0,0 STARLINK-3792,1 52339U 22045J   23036.82294248  .00000422  00000-0  44590-4 0  9992,2 52339  53.2138 232.3147 0001099  83.5444 276.5673 15.08840406 45376,6917.879,95.438,540.504,538.984,0.0
52339.0,STARLINK-3792,PAYLOAD,2023-02-06 13:14:16,15.08840284,0.0001098,53.2139,229.0436,82.4832,277.6285,7.228e-05,8.63e-06,0.0,0 STARLINK-3792,1 52339U 22045J   23037.55158300  .00000863  00000-0  72280-4 0  9997,2 52339  53.2139 229.0436 0001098  82.4832 277.6285 15.08840284 45486,6917.88,95.438,540.504,538.985,0.0
52339.0,STARLINK-3792,PAYLOAD,2023-02-06 19:35:49,15.08844309,0.0001099,53.2139,227.854,82.2987,277.813,0.00010119,1.323e-05,0.0,0 STARLINK-3792,1 52339U 22045J   23037.81653952  .00001323  00000-0  10119-3 0  9993,2 52339  53.2139 227.8540 0001099  82.2987 277.8130 15.08844309 45526,6917.867,95.437,540.492,538.972,0.0
52339.0,STARLINK-3792,PAYLOAD,2023-02-07 05:08:08,15.08838615,0.0001072,53.2137,226.0689,79.0946,281.0167,6.382e-05,7.28e-06,0.0,0 STARLINK-3792,1 52339U 22045J   23038.21398424  .00000728  00000-0  63820-4 0  9994,2 52339  53.2137 226.0689 0001072  79.0946 281.0167 15.08838615 45585,6917.885,95.438,540.491,539.008,0.0
52339.0,STARLINK-3792,PAYLOAD,2023-02-07 21:01:59,15.08842107,0.0001116,53.2136,223.0953,80.8605,279.2513,7.6399e-05,9.28e-06,0.0,0 STARLINK-3792,1 52339U 22045J   23038.87638254  .00000928  00000-0  76399-4 0  9991,2 52339  53.2136 223.0953 0001116  80.8605 279.2513 15.08842107 45682,6917.874,95.437,540.511,538.967,0.0
52339.0,STARLINK-3792,PAYLOAD,2023-02-08 04:58:55,15.0883618,0.0001184,53.214,221.608,80.9268,279.1858,4.5055e-05,4.29e-06,0.0,0 STARLINK-3792,1 52339U 22045J   23039.20758804  .00000429  00000-0  45055-4 0  9994,2 52339  53.2140 221.6080 0001184  80.9268 279.1858 15.08836180 45734,6917.892,95.438,540.576,538.938,0.0
52339.0,STARLINK-3792,PAYLOAD,2023-02-08 19:17:23,15.08838595,0.0001221,53.2143,218.9314,80.1051,280.0079,4.4339e-06,-2.17e-06,0.0,0 STARLINK-3792,1 52339U 22045J   23039.80374924 -.00000217  00000-0  44339-5 0  9998,2 52339  53.2143 218.9314 0001221  80.1051 280.0079 15.08838595 45828,6917.885,95.438,540.594,538.905,0.0
52339.0,STARLINK-3792,PAYLOAD,2023-02-09 04:49:42,15.08841804,0.0001221,53.2139,217.1477,87.0898,273.0233,3.0065e-05,1.91e-06,0.0,0 STARLINK-3792,1 52339U 22045J   23040.20118677  .00000191  00000-0  30065-4 0  9995,2 52339  53.2139 217.1477 0001221  87.0898 273.0233 15.08841804 45886,6917.875,95.437,540.585,538.895,0.0
52339.0,STARLINK-3792,PAYLOAD,2023-02-09 19:08:10,15.0884887,0.0001212,53.2142,214.4717,91.9259,268.1872,6.7334e-05,7.84e-06,0.0,0 STARLINK-3792,1 52339U 22045J   23040.79734328  .00000784  00000-0  67334-4 0  9993,2 52339  53.2142 214.4717 0001212  91.9259 268.1872 15.08848870 45976,6917.853,95.437,540.557,538.88,0.0
52339.0,STARLINK-3792,PAYLOAD,2023-02-10 04:40:29,15.08845467,0.0001324,53.215,212.6883,69.2649,290.8485,1.4716e-05,-5.4e-07,0.0,0 STARLINK-3792,1 52339U 22045J   23041.19478708 -.00000054  00000-0  14716-4 0  9992,2 52339  53.2150 212.6883 0001324  69.2649 290.8485 15.08845467 46033,6917.864,95.437,540.645,538.813,0.0
52339.0,STARLINK-3792,PAYLOAD,2023-02-10 15:48:12,15.08836131,0.0001364,53.2151,210.6069,82.8283,277.2864,9.9267e-05,1.292e-05,0.0,0 STARLINK-3792,1 52339U 22045J   23041.65847368  .00001292  00000-0  99267-4 0  9993,2 52339  53.2151 210.6069 0001364  82.8283 277.2864 15.08836131 46103,6917.892,95.438,540.701,538.814,0.0
52339.0,STARLINK-3792,PAYLOAD,2023-02-11 04:31:17,15.08839016,0.0001264,53.2153,208.2257,85.6643,274.4494,7.1819e-05,8.55e-06,0.0,0 STARLINK-3792,1 52339U 22045J   23042.18839269  .00000855  00000-0  71819-4 0  9990,2 52339  53.2153 208.2257 0001264  85.6643 274.4494 15.08839016 46188,6917.883,95.438,540.623,538.874,0.0
52339.0,STARLINK-3792,PAYLOAD,2023-02-11 20:25:07,15.08847698,0.000116,53.2146,205.2508,88.0991,272.0134,0.00014562,2.031e-05,0.0,0 STARLINK-3792,1 52339U 22045J   23042.85078483  .00002031  00000-0  14562-3 0  9996,2 52339  53.2146 205.2508 0001160  88.0991 272.0134 15.08847698 46285,6917.857,95.437,540.524,538.919,0.0
52339.0,STARLINK-3792,PAYLOAD,2023-02-12 04:22:03,15.08839309,5.98e-05,53.215,203.7652,97.8814,262.2246,7.8217e-05,9.57e-06,0.0,0 STARLINK-3792,1 52339U 22045J   23043.18198953  .00000957  00000-0  78217-4 0  9991,2 52339  53.2150 203.7652 0000598  97.8814 262.2246 15.08839309 46330,6917.883,95.438,540.161,539.334,0.0
52339.0,STARLINK-3792,PAYLOAD,2023-02-13 12:09:46,15.08837224,0.0001088,53.2144,197.8161,104.8569,255.2544,2.5425e-05,1.17e-06,0.0,0 STARLINK-3792,1 52339U 22045J   23044.50679395  .00000117  00000-0  25425-4 0  9993,2 52339  53.2144 197.8161 0001088 104.8569 255.2544 15.08837224 46531,6917.889,95.438,540.507,539.001,0.0
52339.0,STARLINK-3792,PAYLOAD,2023-02-14 10:25:11,15.08833611,0.000152,53.2137,193.6564,88.4846,271.632,1.4945e-05,-5e-07,0.0,0 STARLINK-3792,1 52339U 22045J   23045.43415998 -.00000050  00000-0  14945-4 0  9995,2 52339  53.2137 193.6564 0001520  88.4846 271.6320 15.08833611 46675,6917.9,95.438,540.816,538.713,0.0
52339.0,STARLINK-3792,PAYLOAD,2023-02-14 18:22:05,15.08854396,0.0001443,53.2138,192.1694,106.3045,253.8106,-3.0237e-05,-7.69e-06,0.0,0 STARLINK-3792,1 52339U 22045J   23045.76534616 -.00000769  00000-0 -30237-4 0  9990,2 52339  53.2138 192.1694 0001443 106.3045 253.8106 15.08854396 46722,6917.836,95.437,540.7,538.703,0.0
52339.0,STARLINK-3792,PAYLOAD,2023-02-15 02:19:02,15.08843732,0.0001443,53.2138,190.6833,87.7733,272.3425,-2.4495e-05,-6.78e-06,0.0,0 STARLINK-3792,1 52339U 22045J   23046.09655271 -.00000678  00000-0 -24495-4 0  9996,2 52339  53.2138 190.6833 0001443  87.7733 272.3425 15.08843732 46773,6917.869,95.437,540.732,538.736,0.0
52339.0,STARLINK-3792,PAYLOAD,2023-02-15 13:26:43,15.0884676,0.0001036,53.2142,188.6005,90.3776,269.7334,0.00019757,2.858e-05,0.0,0 STARLINK-3792,1 52339U 22045J   23046.56022559  .00002858  00000-0  19757-3 0  9999,2 52339  53.2142 188.6005 0001036  90.3776 269.7334 15.08846760 46842,6917.86,95.437,540.441,539.008,0.0
52339.0,STARLINK-3792,PAYLOAD,2023-02-15 16:37:29,15.0885122,9.6e-05,53.2144,188.0057,89.0891,271.0211,0.00022503,3.296e-05,0.0,0 STARLINK-3792,1 52339U 22045J   23046.69270074  .00003296  00000-0  22503-3 0  9990,2 52339  53.2144 188.0057 0000960  89.0891 271.0211 15.08851220 46862,6917.846,95.437,540.375,539.047,0.0
52339.0,STARLINK-3792,PAYLOAD,2023-02-16 03:45:11,15.08847956,0.0001108,53.2141,185.9243,91.0335,269.0784,0.00016676,2.368e-05,0.0,0 STARLINK-3792,1 52339U 22045J   23047.15638287  .00002368  00000-0  16676-3 0  9999,2 52339  53.2141 185.9243 0001108  91.0335 269.0784 15.08847956 46934,6917.856,95.437,540.488,538.955,0.0
52339.0,STARLINK-3792,PAYLOAD,2023-02-16 13:17:30,15.08843179,0.0001025,53.2145,184.1397,92.8541,267.2569,0.00012562,1.712e-05,0.0,0 STARLINK-3792,1 52339U 22045J   23047.55382664  .00001712  00000-0  12562-3 0  9990,2 52339  53.2145 184.1397 0001025  92.8541 267.2569 15.08843179 46995,6917.871,95.437,540.445,539.027,0.0
52339.0,STARLINK-3792,PAYLOAD,2023-02-17 14:43:41,15.08830349,8.44e-05,53.2158,179.3816,83.6936,276.4153,-1.733e-05,-5.63e-06,0.0,0 STARLINK-3792,1 52339U 22045J   23048.61367841 -.00000563  00000-0 -17330-4 0  9992,2 52339  53.2158 179.3816 0000844  83.6936 276.4153 15.08830349 47150,6917.91,95.438,540.359,539.191,0.0
52339.0,STARLINK-3792,PAYLOAD,2023-02-18 14:34:29,15.08825849,8.23e-05,53.2157,174.9225,59.9155,300.1918,-1.7695e-05,-5.69e-06,0.0,0 STARLINK-3792,1 52339U 22045J   23049.60728594 -.00000569  00000-0 -17695-4 0  9998,2 52339  53.2157 174.9225 0000823  59.9155 300.1918 15.08825849 47300,6917.924,95.438,540.358,539.219,0.0
52339.0,STARLINK-3792,PAYLOAD,2023-02-19 01:42:10,15.08829531,0.0001037,53.215,172.8376,111.7126,248.3977,0.00012463,1.696e-05,0.0,0 STARLINK-3792,1 52339U 22045J   23050.07095925  .00001696  00000-0  12463-3 0  9993,2 52339  53.2150 172.8376 0001037 111.7126 248.3977 15.08829531 47377,6917.912,95.438,540.495,539.06,0.0
